IRIDIUM 126             
1 42809U 17039G   25295.51707184  .00000077  00000+0  20298-4 0  9997
2 42809  86.3922  93.0046 0002252  88.6012 271.5441 14.34217611435885
IRIDIUM 124             
1 42810U 17039H   25295.52493914  .00000658  00000+0  18968-3 0  9998
2 42810  86.4532  29.7065 0002081  89.9685 270.1755 14.43284120440835
IRIDIUM 128             
1 42811U 17039J   25295.50782575  .00000172  00000+0  54205-4 0  9997
2 42811  86.3938 124.5411 0001730  80.0825 280.0566 14.34216728435914
IRIDIUM 121             
1 42812U 17039K   25295.46632896  .00000010  00000+0 -34973-5 0  9996
2 42812  86.3922  93.0519 0001915  91.7920 268.3495 14.34217800435751
IRIDIUM 133             
1 42955U 17061A   25295.46975282 -.00000119  00000+0 -49390-4 0  9997
2 42955  86.3944 124.6688 0001928  86.0415 274.1001 14.34217350420708
IRIDIUM 100             
1 42956U 17061B   25295.46340917  .00000083  00000+0  22529-4 0  9992
2 42956  86.3937 124.5956 0002133  83.8339 276.3100 14.34217363420705
IRIDIUM 122             
1 42957U 17061C   25295.50146525 -.00000228  00000+0 -88453-4 0  9998
2 42957  86.3942 124.5793 0002017  83.5703 276.5722 14.34217077420719
IRIDIUM 129             
1 42958U 17061D   25295.52683522  .00000052  00000+0  11613-4 0  9991
2 42958  86.3939 124.6332 0002381  94.9387 265.2081 14.34217186420730
